{"fetched_at":"2026-03-29T16:36:15Z","count":15609,"tles":[{"name":"LEMUR-2-DELOITTE-1","line1":"1 63259U 25052BB  26087.65673338  .00005687  00000+0  49936-3 0  9992","line2":"2 63259  97.7019 341.6412 0002776  60.0868 300.0629 14.96977014 56640","category":"Other"}]}